STARLINK-4766           
1 53840U 22114Y   23327.56673017 -.00001007  00000+0 -45213-4 0  9990
2 53840  53.2188  92.1731 0001368  92.7600 267.3549 15.08828804 66590
STARLINK-4750           
1 53841U 22114Z   23327.57313258  .00000533  00000+0  51564-4 0  9997
2 53841  53.2168  92.2109 0001447 109.1200 250.9949 15.08838843 66592
STARLINK-4754           
1 53842U 22114AA  23327.55839434 -.00000469  00000+0 -11376-4 0  9992
2 53842  53.2168  92.1207 0001694 102.5775 257.5407 15.08837016 66592
STARLINK-4769           
1 53843U 22114AB  23327.56945150 -.00000904  00000+0 -38727-4 0  9990
2 53843  53.2176  92.1828 0001539 111.8683 248.2473 15.08833247 66592
STARLINK-4745           
1 53844U 22114AC  23327.55103046 -.00000940  00000+0 -40972-4 0  9995
2 53844  53.2167  92.0741 0001369  80.9193 279.1954 15.08830941 66594
STARLINK-4753           
1 53845U 22114AD  23327.56208301 -.00001448  00000+0 -72895-4 0  9990
2 53845  53.2172  92.1624 0001323  98.4396 261.6746 15.08833440 66593
STARLINK-4746           
1 53846U 22114AE  23327.54366063 -.00000994  00000+0 -44390-4 0  9993
2 53846  53.2193  92.0294 0001539  97.1013 263.0155 15.08835216 66593
STARLINK-4777           
1 53847U 22114AF  23327.55470979  .00002389  00000+0  16818-3 0  9998
2 53847  53.2199  92.0877 0001582 139.0532 221.0579 15.08826544 66595
STARLINK-4780           
1 53848U 22114AG  23327.60252865 -.00001007  00000+0 -45187-4 0  9997
2 53848  53.2174  91.6856 0001419  93.8081 266.3073 15.08832799 66608
STARLINK-4770           
1 53849U 22114AH  23327.54733887  .00000342  00000+0  39601-4 0  9992
2 53849  53.2177  92.0514 0001408  99.2341 260.8810 15.08836840 66592
STARLINK-4767           
1 53850U 22114AJ  23327.59147845 -.00000863  00000+0 -36168-4 0  9997
2 53850  53.2190  91.6186 0001569 100.9166 259.2003 15.08831897 66607
STARLINK-4755           
1 53851U 22114AK  23327.60621186 -.00000046  00000+0  15206-4 0  9997
2 53851  53.2184  91.7093 0001479 107.1775 252.9380 15.08836327 66605
STARLINK-4797           
1 53852U 22114AL  23327.55333610 -.00001191  00000+0 -56765-4 0  9992
2 53852  53.2194  87.1037 0001471 107.6500 252.4653 15.08831128 66665
STARLINK-4794           
1 53853U 22114AM  23327.59884669 -.00000731  00000+0 -27852-4 0  9996
2 53853  53.2182  91.6615 0001448 100.1923 259.9233 15.08834894 66609
STARLINK-4800           
1 53854U 22114AN  23327.58142959 -.00000253  00000+0  22121-5 0  9998
2 53854  53.2182  82.2798 0001391  96.4710 263.6441 15.08838325 66736
STARLINK-4703           
1 53855U 22114AP  23327.60349413 -.00000372  00000+0 -52818-5 0  9995
2 53855  53.2178  91.6882 0001403  98.4280 261.6871 15.08830253 66601
STARLINK-4795           
1 53856U 22114AQ  23327.56669530 -.00000982  00000+0 -43605-4 0  9996
2 53856  53.2188  82.1914 0001782 105.9226 254.1963 15.08831520 66739
