[{"OBJECT_NAME":"STARLINK-4766","OBJECT_ID":"2022-114Y","EPOCH":"2023-11-23T13:36:05.486688","MEAN_MOTION":15.08828804,"ECCENTRICITY":0.0001368,"INCLINATION":53.2188,"RA_OF_ASC_NODE":92.1731,"ARG_OF_PERICENTER":92.76,"MEAN_ANOMALY":267.3549,"EPHEMERIS_TYPE":0,"CLASSIFICATION_TYPE":"U","NORAD_CAT_ID":53840,"ELEMENT_SET_NO":999,"REV_AT_EPOCH":6659,"BSTAR":-4.5213e-5,"MEAN_MOTION_DOT":-1.007e-5,"MEAN_MOTION_DDOT":0},{"OBJECT_NAME":"STARLINK-4750","OBJECT_ID":"2022-114Z","EPOCH":"2023-11-23T13:45:18.654912","MEAN_MOTION":15.08838843,"ECCENTRICITY":0.0001447,"INCLINATION":53.2168,"RA_OF_ASC_NODE":92.2109,"ARG_OF_PERICENTER":109.12,"MEAN_ANOMALY":250.9949,"EPHEMERIS_TYPE":0,"CLASSIFICATION_TYPE":"U","NORAD_CAT_ID":53841,"ELEMENT_SET_NO":999,"REV_AT_EPOCH":6659,"BSTAR":5.1564e-5,"MEAN_MOTION_DOT":5.33e-6,"MEAN_MOTION_DDOT":0},{"OBJECT_NAME":"STARLINK-4754","OBJECT_ID":"2022-114AA","EPOCH":"2023-11-23T13:24:05.270976","MEAN_MOTION":15.08837016,"ECCENTRICITY":0.0001694,"INCLINATION":53.2168,"RA_OF_ASC_NODE":92.1207,"ARG_OF_PERICENTER":102.5775,"MEAN_ANOMALY":257.5407,"EPHEMERIS_TYPE":0,"CLASSIFICATION_TYPE":"U","NORAD_CAT_ID":53842,"ELEMENT_SET_NO":999,"REV_AT_EPOCH":6659,"BSTAR":-1.1376e-5,"MEAN_MOTION_DOT":-4.69e-6,"MEAN_MOTION_DDOT":0},{"OBJECT_NAME":"STARLINK-4769","OBJECT_ID":"2022-114AB","EPOCH":"2023-11-23T13:40:00.609600","MEAN_MOTION":15.08833247,"ECCENTRICITY":0.0001539,"INCLINATION":53.2176,"RA_OF_ASC_NODE":92.1828,"ARG_OF_PERICENTER":111.8683,"MEAN_ANOMALY":248.2473,"EPHEMERIS_TYPE":0,"CLASSIFICATION_TYPE":"U","NORAD_CAT_ID":53843,"ELEMENT_SET_NO":999,"REV_AT_EPOCH":6659,"BSTAR":-3.8727e-5,"MEAN_MOTION_DOT":-9.04e-6,"MEAN_MOTION_DDOT":0},{"OBJECT_NAME":"STARLINK-4745","OBJECT_ID":"2022-114AC","EPOCH":"2023-11-23T13:13:29.031744","MEAN_MOTION":15.08830941,"ECCENTRICITY":0.0001369,"INCLINATION":53.2167,"RA_OF_ASC_NODE":92.0741,"ARG_OF_PERICENTER":80.9193,"MEAN_ANOMALY":279.1954,"EPHEMERIS_TYPE":0,"CLASSIFICATION_TYPE":"U","NORAD_CAT_ID":53844,"ELEMENT_SET_NO":999,"REV_AT_EPOCH":6659,"BSTAR":-4.0972e-5,"MEAN_MOTION_DOT":-9.4e-6,"MEAN_MOTION_DDOT":0},{"OBJECT_NAME":"STARLINK-4753","OBJECT_ID":"2022-114AD","EPOCH":"2023-11-23T13:29:23.972064","MEAN_MOTION":15.0883344,"ECCENTRICITY":0.0001323,"INCLINATION":53.2172,"RA_OF_ASC_NODE":92.1624,"ARG_OF_PERICENTER":98.4396,"MEAN_ANOMALY":261.6746,"EPHEMERIS_TYPE":0,"CLASSIFICATION_TYPE":"U","NORAD_CAT_ID":53845,"ELEMENT_SET_NO":999,"REV_AT_EPOCH":6659,"BSTAR":-7.2895e-5,"MEAN_MOTION_DOT":-1.448e-5,"MEAN_MOTION_DDOT":0},{"OBJECT_NAME":"STARLINK-4746","OBJECT_ID":"2022-114AE","EPOCH":"2023-11-23T13:02:52.278432","MEAN_MOTION":15.08835216,"ECCENTRICITY":0.0001539,"INCLINATION":53.2193,"RA_OF_ASC_NODE":92.0294,"ARG_OF_PERICENTER":97.1013,"MEAN_ANOMALY":263.0155,"EPHEMERIS_TYPE":0,"CLASSIFICATION_TYPE":"U","NORAD_CAT_ID":53846,"ELEMENT_SET_NO":999,"REV_AT_EPOCH":6659,"BSTAR":-4.439e-5,"MEAN_MOTION_DOT":-9.94e-6,"MEAN_MOTION_DDOT":0},{"OBJECT_NAME":"STARLINK-4777","OBJECT_ID":"2022-114AF","EPOCH":"2023-11-23T13:18:46.925856","MEAN_MOTION":15.08826544,"ECCENTRICITY":0.0001582,"INCLINATION":53.2199,"RA_OF_ASC_NODE":92.0877,"ARG_OF_PERICENTER":139.0532,"MEAN_ANOMALY":221.0579,"EPHEMERIS_TYPE":0,"CLASSIFICATION_TYPE":"U","NORAD_CAT_ID":53847,"ELEMENT_SET_NO":999,"REV_AT_EPOCH":6659,"BSTAR":0.00016818,"MEAN_MOTION_DOT":2.389e-5,"MEAN_MOTION_DDOT":0},{"OBJECT_NAME":"STARLINK-4780","OBJECT_ID":"2022-114AG","EPOCH":"2023-11-23T14:27:38.475360","MEAN_MOTION":15.08832799,"ECCENTRICITY":0.0001419,"INCLINATION":53.2174,"RA_OF_ASC_NODE":91.6856,"ARG_OF_PERICENTER":93.8081,"MEAN_ANOMALY":266.3073,"EPHEMERIS_TYPE":0,"CLASSIFICATION_TYPE":"U","NORAD_CAT_ID":53848,"ELEMENT_SET_NO":999,"REV_AT_EPOCH":6660,"BSTAR":-4.5187e-5,"MEAN_MOTION_DOT":-1.007e-5,"MEAN_MOTION_DDOT":0},{"OBJECT_NAME":"STARLINK-4770","OBJECT_ID":"2022-114AH","EPOCH":"2023-11-23T13:08:10.078368","MEAN_MOTION":15.0883684,"ECCENTRICITY":0.0001408,"INCLINATION":53.2177,"RA_OF_ASC_NODE":92.0514,"ARG_OF_PERICENTER":99.2341,"MEAN_ANOMALY":260.881,"EPHEMERIS_TYPE":0,"CLASSIFICATION_TYPE":"U","NORAD_CAT_ID":53849,"ELEMENT_SET_NO":999,"REV_AT_EPOCH":6659,"BSTAR":3.9601e-5,"MEAN_MOTION_DOT":3.42e-6,"MEAN_MOTION_DDOT":0},{"OBJECT_NAME":"STARLINK-4767","OBJECT_ID":"2022-114AJ","EPOCH":"2023-11-23T14:11:43.738080","MEAN_MOTION":15.08831897,"ECCENTRICITY":0.0001569,"INCLINATION":53.219,"RA_OF_ASC_NODE":91.6186,"ARG_OF_PERICENTER":100.9166,"MEAN_ANOMALY":259.2003,"EPHEMERIS_TYPE":0,"CLASSIFICATION_TYPE":"U","NORAD_CAT_ID":53850,"ELEMENT_SET_NO":999,"REV_AT_EPOCH":6660,"BSTAR":-3.6168e-5,"MEAN_MOTION_DOT":-8.63e-6,"MEAN_MOTION_DDOT":0},{"OBJECT_NAME":"STARLINK-4755","OBJECT_ID":"2022-114AK","EPOCH":"2023-11-23T14:32:56.704704","MEAN_MOTION":15.08836327,"ECCENTRICITY":0.0001479,"INCLINATION":53.2184,"RA_OF_ASC_NODE":91.7093,"ARG_OF_PERICENTER":107.1775,"MEAN_ANOMALY":252.938,"EPHEMERIS_TYPE":0,"CLASSIFICATION_TYPE":"U","NORAD_CAT_ID":53851,"ELEMENT_SET_NO":999,"REV_AT_EPOCH":6660,"BSTAR":1.5206e-5,"MEAN_MOTION_DOT":-4.6e-7,"MEAN_MOTION_DDOT":0},{"OBJECT_NAME":"STARLINK-4797","OBJECT_ID":"2022-114AL","EPOCH":"2023-11-23T13:16:48.239040","MEAN_MOTION":15.08831128,"ECCENTRICITY":0.0001471,"INCLINATION":53.2194,"RA_OF_ASC_NODE":87.1037,"ARG_OF_PERICENTER":107.65,"MEAN_ANOMALY":252.4653,"EPHEMERIS_TYPE":0,"CLASSIFICATION_TYPE":"U","NORAD_CAT_ID":53852,"ELEMENT_SET_NO":999,"REV_AT_EPOCH":6666,"BSTAR":-5.6765e-5,"MEAN_MOTION_DOT":-1.191e-5,"MEAN_MOTION_DDOT":0},{"OBJECT_NAME":"STARLINK-4794","OBJECT_ID":"2022-114AM","EPOCH":"2023-11-23T14:22:20.354016","MEAN_MOTION":15.08834894,"ECCENTRICITY":0.0001448,"INCLINATION":53.2182,"RA_OF_ASC_NODE":91.6615,"ARG_OF_PERICENTER":100.1923,"MEAN_ANOMALY":259.9233,"EPHEMERIS_TYPE":0,"CLASSIFICATION_TYPE":"U","NORAD_CAT_ID":53853,"ELEMENT_SET_NO":999,"REV_AT_EPOCH":6660,"BSTAR":-2.7852e-5,"MEAN_MOTION_DOT":-7.31e-6,"MEAN_MOTION_DDOT":0},{"OBJECT_NAME":"STARLINK-4800","OBJECT_ID":"2022-114AN","EPOCH":"2023-11-23T13:57:15.516576","MEAN_MOTION":15.08838325,"ECCENTRICITY":0.0001391,"INCLINATION":53.2182,"RA_OF_ASC_NODE":82.2798,"ARG_OF_PERICENTER":96.471,"MEAN_ANOMALY":263.6441,"EPHEMERIS_TYPE":0,"CLASSIFICATION_TYPE":"U","NORAD_CAT_ID":53854,"ELEMENT_SET_NO":999,"REV_AT_EPOCH":6673,"BSTAR":2.2121e-6,"MEAN_MOTION_DOT":-2.53e-6,"MEAN_MOTION_DDOT":0},{"OBJECT_NAME":"STARLINK-4703","OBJECT_ID":"2022-114AP","EPOCH":"2023-11-23T14:29:01.892832","MEAN_MOTION":15.08830253,"ECCENTRICITY":0.0001403,"INCLINATION":53.2178,"RA_OF_ASC_NODE":91.6882,"ARG_OF_PERICENTER":98.428,"MEAN_ANOMALY":261.6871,"EPHEMERIS_TYPE":0,"CLASSIFICATION_TYPE":"U","NORAD_CAT_ID":53855,"ELEMENT_SET_NO":999,"REV_AT_EPOCH":6660,"BSTAR":-5.2818e-6,"MEAN_MOTION_DOT":-3.72e-6,"MEAN_MOTION_DDOT":0},{"OBJECT_NAME":"STARLINK-4795","OBJECT_ID":"2022-114AQ","EPOCH":"2023-11-23T13:36:02.473920","MEAN_MOTION":15.0883152,"ECCENTRICITY":0.0001782,"INCLINATION":53.2188,"RA_OF_ASC_NODE":82.1914,"ARG_OF_PERICENTER":105.9226,"MEAN_ANOMALY":254.1963,"EPHEMERIS_TYPE":0,"CLASSIFICATION_TYPE":"U","NORAD_CAT_ID":53856,"ELEMENT_SET_NO":999,"REV_AT_EPOCH":6673,"BSTAR":-4.3605e-5,"MEAN_MOTION_DOT":-9.82e-6,"MEAN_MOTION_DDOT":0}]
